line1,line2,validFromUtcTime
1 00000U 00000E   26001.00000000  .00000000  00000-0  27772-4 0    01,2 00000  88.8986  45.3312 0010194 270.0144 352.5899 13.55273992    07,2026-01-01T00:00:00Z
1 00000U 00000E   26002.00000000  .00000000  00000-0  27772-4 0    02,2 00000  88.8986  45.2192 0010194 267.1045 191.5747 13.55274031    07,2026-01-02T00:00:00Z
